NORAD_CAT_ID,OBJECT_NAME,OBJECT_TYPE,EPOCH,MEAN_MOTION,ECCENTRICITY,INCLINATION,RA_OF_ASC_NODE,ARG_OF_PERICENTER,MEAN_ANOMALY,BSTAR,MEAN_MOTION_DOT,MEAN_MOTION_DDOT,TLE_LINE0,TLE_LINE1,TLE_LINE2,SEMIMAJOR_AXIS,PERIOD,APOGEE,PERIGEE,DECAYED
49421.0,STARLINK-3112,PAYLOAD,2022-07-17 09:26:12,15.088386800000002,0.0002357,53.2183,85.5504,60.511,299.6117,8.324e-05,1.037e-05,0.0,0 STARLINK-3112,1 49421U 21104P   22198.39320039  .00001037  00000-0  83240-4 0  9991,2 49421  53.2183  85.5504 0002357  60.5110 299.6117 15.08838680 37643,6917.884,95.438,541.38,538.119,0.0
49421.0,STARLINK-3112,PAYLOAD,2022-07-17 17:23:08,15.08844062,0.0002298,53.2199,84.06299999999997,62.6755,297.4471,-2.1961e-05,-6.38e-06,0.0,0 STARLINK-3112,1 49421U 21104P   22198.72440070 -.00000638  00000-0 -21961-4 0  9996,2 49421  53.2199  84.0630 0002298  62.6755 297.4471 15.08844062 37691,6917.868,95.437,541.323,538.143,0.0
49421.0,STARLINK-3112,PAYLOAD,2022-07-18 02:55:27,15.08842347,0.0002279,53.2187,82.2784,61.4604,298.6617,-3.4519e-05,-8.38e-06,0.0,0 STARLINK-3112,1 49421U 21104P   22199.12184096 -.00000838  00000-0 -34519-4 0  9999,2 49421  53.2187  82.2784 0002279  61.4604 298.6617 15.08842347 38833,6917.873000000001,95.437,541.315,538.1619999999998,0.0
49421.0,STARLINK-3112,PAYLOAD,2022-07-18 09:16:59,15.088482,0.0002295,53.2187,81.0891,61.8433,298.279,3.9945e-06,-2.25e-06,0.0,0 STARLINK-3112,1 49421U 21104P   22199.38679571 -.00000225  00000-0  39945-5 0  9992,2 49421  53.2187  81.0891 0002295  61.8433 298.2790 15.08848200 37797,6917.855,95.437,541.308,538.133,0.0
49421.0,STARLINK-3112,PAYLOAD,2022-07-18 20:24:41,15.08840187,0.0002293,53.2187,79.0077,61.878,298.2444,-3.9979e-05,-9.25e-06,0.0,0 STARLINK-3112,1 49421U 21104P   22199.85048071 -.00000925  00000-0 -39979-4 0  9993,2 49421  53.2187  79.0077 0002293  61.8780 298.2444 15.08840187 37863,6917.88,95.438,541.331,538.159,0.0
49421.0,STARLINK-3112,PAYLOAD,2022-07-19 09:07:45,15.08852593,0.0002272,53.2193,76.62899999999998,62.5135,297.6088,-4.6842e-05,-1.034e-05,0.0,0 STARLINK-3112,1 49421U 21104P   22200.38039149 -.00001034  00000-0 -46842-4 0  9999,2 49421  53.2193  76.6290 0002272  62.5135 297.6088 15.08852593 39020,6917.842,95.437,541.279,538.135,0.0
49421.0,STARLINK-3112,PAYLOAD,2022-07-19 21:50:51,15.08840449,0.000201,53.2189,74.2497,63.8866,296.2332,0.00011179,1.491e-05,0.0,0 STARLINK-3112,1 49421U 21104P   22200.91031490  .00001491  00000-0  11179-3 0  9998,2 49421  53.2189  74.2497 0002010  63.8866 296.2332 15.08840449 39106,6917.879,95.438,541.135,538.354,0.0
49421.0,STARLINK-3112,PAYLOAD,2022-07-20 08:58:32,15.08846169,0.0002020999999999,53.2193,72.1676,64.7498,295.3704,3.89e-05,3.31e-06,0.0,0 STARLINK-3112,1 49421U 21104P   22201.37399289  .00000331  00000-0  38900-4 0  9996,2 49421  53.2193  72.1676 0002021  64.7498 295.3704 15.08846169 38095,6917.861999999999,95.437,541.125,538.328,0.0
49421.0,STARLINK-3112,PAYLOAD,2022-07-20 20:06:15,15.08840864,0.0002003,53.2193,70.0863,64.6056,295.5144,0.00011356,1.52e-05,0.0,0 STARLINK-3112,1 49421U 21104P   22201.83767381  .00001520  00000-0  11356-3 0  9995,2 49421  53.2193  70.0863 0002003  64.6056 295.5144 15.08840864 38163,6917.878000000002,95.438,541.128,538.357,0.0
49421.0,STARLINK-3112,PAYLOAD,2022-07-20 23:17:01,15.08843536,0.000197,53.2197,69.4912,65.5301,294.5896,7.7487e-05,9.45e-06,0.0,0 STARLINK-3112,1 49421U 21104P   22201.97015283  .00000945  00000-0  77487-4 0  9995,2 49421  53.2197  69.4912 0001970  65.5301 294.5896 15.08843536 39263,6917.87,95.437,541.097,538.372,0.0
49421.0,STARLINK-3112,PAYLOAD,2022-07-21 08:49:20,15.08842315,0.0001989,53.2196,67.7073,65.4703,294.6497,4.2234e-05,3.84e-06,0.0,0 STARLINK-3112,1 49421U 21104P   22202.36759388  .00000384  00000-0  42234-4 0  9999,2 49421  53.2196  67.7073 0001989  65.4703 294.6497 15.08842315 38245,6917.873000000001,95.437,541.114,538.362,0.0
49421.0,STARLINK-3112,PAYLOAD,2022-07-21 21:32:25,15.0884116,0.0001888,53.2195,65.3279,66.5092,293.6098,3.2337e-05,2.27e-06,0.0,0 STARLINK-3112,1 49421U 21104P   22202.89751339  .00000227  00000-0  32337-4 0  9994,2 49421  53.2195  65.3279 0001888  66.5092 293.6098 15.08841160 38329,6917.877,95.437,541.048,538.436,0.0
49421.0,STARLINK-3112,PAYLOAD,2022-07-22 00:43:12,15.08829869,0.0001875999999999,53.2192,64.7345,61.3575,298.7606,-6.717e-05,-1.357e-05,0.0,0 STARLINK-3112,1 49421U 21104P   22203.03000397 -.00001357  00000-0 -67170-4 0  9992,2 49421  53.2192  64.7345 0001876  61.3575 298.7606 15.08829869 38344,6917.911,95.438,541.0740000000002,538.479,0.0
49421.0,STARLINK-3112,PAYLOAD,2022-07-22 21:23:12,15.08837799,0.0001793,53.2191,60.8697,58.2337,301.883,2.4175e-05,9.7e-07,0.0,0 STARLINK-3112,1 49421U 21104P   22203.89111882  .00000097  00000-0  24175-4 0  9994,2 49421  53.2191  60.8697 0001793  58.2337 301.8830 15.08837799 38479,6917.887,95.438,540.992,538.512,0.0
49421.0,STARLINK-3112,PAYLOAD,2022-07-23 00:33:58,15.08840813,0.0001805,53.2192,60.2748,59.7604,300.3567,4.3729e-05,4.08e-06,0.0,0 STARLINK-3112,1 49421U 21104P   22204.02359669  .00000408  00000-0  43729-4 0  9999,2 49421  53.2192  60.2748 0001805  59.7604 300.3567 15.08840813 38492,6917.878000000002,95.438,540.992,538.494,0.0
49421.0,STARLINK-3112,PAYLOAD,2022-07-23 19:38:37,15.08826701,0.0001633,53.2191,56.7063,57.519,302.596,-2.3392e-05,-6.6e-06,0.0,0 STARLINK-3112,1 49421U 21104P   22204.81848904 -.00000660  00000-0 -23392-4 0  9997,2 49421  53.2191  56.7063 0001633  57.5190 302.5960 15.08826701 38611,6917.920999999999,95.438,540.9159999999998,538.656,0.0
49421.0,STARLINK-3112,PAYLOAD,2022-07-24 13:07:52,15.08824408,0.0001817,53.2191,53.4351,56.1827,303.9338,-1.6714e-05,-5.54e-06,0.0,0 STARLINK-3112,1 49421U 21104P   22205.54713591 -.00000554  00000-0 -16714-4 0  9993,2 49421  53.2191  53.4351 0001817  56.1827 303.9338 15.08824408 38729,6917.928000000001,95.439,541.05,538.536,0.0
49421.0,STARLINK-3112,PAYLOAD,2022-07-24 21:04:48,15.08832637,0.0001769,53.2193,51.9489,55.24100000000001,304.8749,-2.4936e-05,-6.85e-06,0.0,0 STARLINK-3112,1 49421U 21104P   22205.87833398 -.00000685  00000-0 -24936-4 0  9997,2 49421  53.2193  51.9489 0001769  55.2410 304.8749 15.08832637 38774,6917.903,95.438,540.992,538.544,0.0
49421.0,STARLINK-3112,PAYLOAD,2022-07-25 12:58:39,15.08827802,0.0001802,53.2195,48.9752,56.4608,303.6556,0.00014587,2.033e-05,0.0,0 STARLINK-3112,1 49421U 21104P   22206.54073329  .00002033  00000-0  14587-3 0  9999,2 49421  53.2195  48.9752 0001802  56.4608 303.6556 15.08827802 38877,6917.918000000002,95.438,541.029,538.536,0.0
49421.0,STARLINK-3112,PAYLOAD,2022-07-25 14:34:02,15.08829103,0.00018,53.2195,48.678,56.8687,303.2478,0.00015609,2.196e-05,0.0,0 STARLINK-3112,1 49421U 21104P   22206.60697282  .00002196  00000-0  15609-3 0  9992,2 49421  53.2195  48.6780 0001800  56.8687 303.2478 15.08829103 38880,6917.9140000000025,95.438,541.024,538.533,0.0
49421.0,STARLINK-3112,PAYLOAD,2022-07-25 22:30:58,15.08833251,0.0001823,53.2196,47.1913,57.7042,302.4126,0.00017752,2.538e-05,0.0,0 STARLINK-3112,1 49421U 21104P   22206.93817186  .00002538  00000-0  17752-3 0  9996,2 49421  53.2196  47.1913 0001823  57.7042 302.4126 15.08833251 40011,6917.901,95.438,541.0269999999998,538.505,0.0
49421.0,STARLINK-3112,PAYLOAD,2022-07-26 12:49:25,15.08841639,0.0001806,53.2196,44.5151,60.3097,299.8074,0.00017351,2.475e-05,0.0,0 STARLINK-3112,1 49421U 21104P   22207.53432858  .00002475  00000-0  17351-3 0  9997,2 49421  53.2196  44.5151 0001806  60.3097 299.8074 15.08841639 39026,6917.875,95.437,540.99,538.491,0.0
49421.0,STARLINK-3112,PAYLOAD,2022-07-26 17:35:35,15.08844924,0.0001819,53.2197,43.6232,60.4872,299.6302,0.00019067,2.748e-05,0.0,0 STARLINK-3112,1 49421U 21104P   22207.73304592  .00002748  00000-0  19067-3 0  9991,2 49421  53.2197  43.6232 0001819  60.4872 299.6302 15.08844924 40139,6917.865,95.437,540.989,538.472,0.0
49421.0,STARLINK-3112,PAYLOAD,2022-07-26 20:46:21,15.08847443,0.0001826,53.2197,43.0284,60.6392,299.4783,0.00019138,2.7600000000000014e-05,0.0,0 STARLINK-3112,1 49421U 21104P   22207.86552469  .00002760  00000-0  19138-3 0  9996,2 49421  53.2197  43.0284 0001826  60.6392 299.4783 15.08847443 39078,6917.858,95.437,540.986,538.4590000000002,0.0
49421.0,STARLINK-3112,PAYLOAD,2022-07-26 22:21:44,15.08847456,0.0001829,53.2197,42.731,60.657,299.4604,0.00019213,2.772e-05,0.0,0 STARLINK-3112,1 49421U 21104P   22207.93176482  .00002772  00000-0  19213-3 0  9998,2 49421  53.2197  42.7310 0001829  60.6570 299.4604 15.08847456 39082,6917.858,95.437,540.988,538.457,0.0
49421.0,STARLINK-3112,PAYLOAD,2022-07-27 19:01:45,15.08845137,0.0001836,53.2191,38.865,62.4756,297.6422,9.2386e-05,1.183e-05,0.0,0 STARLINK-3112,1 49421U 21104P   22208.79288792  .00001183  00000-0  92386-4 0  9999,2 49421  53.2191  38.8650 0001836  62.4756 297.6422 15.08845137 39210,6917.865,95.437,541.0,538.46,0.0
49421.0,STARLINK-3112,PAYLOAD,2022-07-28 12:30:59,15.08845664,0.0001748,53.2208,35.5949,64.7076,295.4098,5.4657e-05,5.82e-06,0.0,0 STARLINK-3112,1 49421U 21104P   22209.52152625  .00000582  00000-0  54657-4 0  9997,2 49421  53.2208  35.5949 0001748  64.7076 295.4098 15.08845664 39328,6917.863,95.437,540.937,538.519,0.0
49421.0,STARLINK-3112,PAYLOAD,2022-07-28 17:17:09,15.08839123,0.0001821,53.22,34.7029,63.731,296.3869,-4.291899999999999e-05,-9.71e-06,0.0,0 STARLINK-3112,1 49421U 21104P   22209.72025212 -.00000971  00000-0 -42919-4 0  9992,2 49421  53.2200  34.7029 0001821  63.7310 296.3869 15.08839123 39354,6917.8830000000025,95.438,541.008,538.488,0.0
49421.0,STARLINK-3112,PAYLOAD,2022-07-28 18:52:32,15.0883962,0.000182,53.2207,34.4053,66.5244,293.5939,-6.7555e-05,-1.363e-05,0.0,0 STARLINK-3112,1 49421U 21104P   22209.78649221 -.00001363  00000-0 -67555-4 0  9999,2 49421  53.2207  34.4053 0001820  66.5244 293.5939 15.08839620 40442,6917.882,95.438,541.006,538.487,0.0
